IRIDIUM 112             
1 41925U 17003J   24021.16650716  .00000196  00000+0  62939-4 0  9991
2 41925  86.3952  95.2752 0002272  93.1347 267.0109 14.34217962367455
IRIDIUM 111             
1 41926U 17003K   24020.73521025  .00000524  00000+0  18015-3 0  9994
2 41926  86.3955  95.5071 0002246  86.5632 273.5821 14.34218933367340
IRIDIUM 113             
1 42803U 17039A   24021.34308543  .00001866  00000+0  65910-3 0  9990
2 42803  86.3998 329.0034 0002487  80.6211 279.5266 14.34215477345368
IRIDIUM 123             
1 42804U 17039B   24021.03572704  .00000578  00000+0  19915-3 0  9992
2 42804  86.3983   0.6186 0002310  84.3392 275.8067 14.34217105344085
IRIDIUM 120             
1 42805U 17039C   24020.91813317  .00000600  00000+0  20717-3 0  9995
2 42805  86.3987 329.0775 0002176  84.2537 275.8907 14.34220210345290
IRIDIUM 115             
1 42806U 17039D   24021.39016129  .00000842  00000+0  24419-3 0  9996
2 42806  86.4526 328.8831 0002346  81.8146 278.3321 14.43305859347652
IRIDIUM 118             
1 42807U 17039E   24020.99767159  .00000561  00000+0  19338-3 0  9990
2 42807  86.3982   0.6364 0002195  87.0829 273.0618 14.34220182344082
IRIDIUM 117             
1 42808U 17039F   24020.94692956  .00000225  00000+0  73117-4 0  9991
2 42808  86.3982   0.6233 0002240  81.0367 279.1082 14.34216344344100
